GLOBALSTAR M094         
1 39074U 13005C   25298.98877430 -.00000093  00000+0  59951-4 0  9999
2 39074  51.9932 143.8647 0000890 101.0090 259.0877 12.62264868588896
GLOBALSTAR M096         
1 39075U 13005D   25299.16032442 -.00000069  00000+0  19648-3 0  9998
2 39075  52.0063 191.9593 0000849  89.6901 270.4063 12.62268163587833
GLOBALSTAR M078         
1 39076U 13005E   25299.29279693 -.00000093  00000+0  62406-4 0  9992
2 39076  51.9867 275.8908 0001269  95.9272 264.1740 12.62261406586478
GLOBALSTAR M095         
1 39077U 13005F   25299.23962964 -.00000091  00000+0  72650-4 0  9997
2 39077  52.0077 273.3234 0000696 106.7572 253.3372 12.62261094586324
GLOBALSTAR M087         
1 52888U 22064A   25298.77751011 -.00000096  00000+0  43949-4 0  9998
2 52888  52.0007  56.0976 0000836 122.0946 238.0002 12.62289534161534
